start=new Date('2023-03-30T00:00:00.000Z').valueOf();
sats=[{"TLE_LINE1":"1 55500U 23015BD  23088.91667824  .00046182  00000-0  34135-2 0  9999","PERIOD":"95.840","MEAN_MOTION":"15.02511834","EPHEMERIS_TYPE":"0","INCLINATION":"43.0023","PERIAPSIS":"557.981","SITE":"AFETR","EPOCH":"2023-03-29T22:00:00.999936","TIME_SYSTEM":"UTC","GP_ID":"229141861","TLE_LINE2":"2 55500  43.0023  64.0715 0001694 260.5624 108.5261 15.02511834  1304","MEAN_MOTION_DOT":"0.00046182","BSTAR":"0.00341350000000","NORAD_CAT_ID":"55500","CLASSIFICATION_TYPE":"U","MEAN_ANOMALY":"108.5261","CENTER_NAME":"EARTH","DECAY_DATE":null,"COUNTRY_CODE":"US","ECCENTRICITY":"0.00016940","OBJECT_ID":"2023-015BD","RA_OF_ASC_NODE":"64.0715","MEAN_ELEMENT_THEORY":"SGP4","FILE":"3874790","RCS_SIZE":"LARGE","APOAPSIS":"560.331","LAUNCH_DATE":"2023-02-02","OBJECT_TYPE":"PAYLOAD","ELEMENT_SET_NO":"999","MEAN_MOTION_DDOT":"0.0000000000000","REV_AT_EPOCH":"130","OBJECT_NAME":"STARLINK-5141","ARG_OF_PERICENTER":"260.5624","REF_FRAME":"TEME","SEMIMAJOR_AXIS":"6937.291"},{"TLE_LINE1":"1 55501U 23015BE  23088.91667824  .00042379  00000-0  31345-2 0  9994","PERIOD":"95.839","EPHEMERIS_TYPE":"0","MEAN_MOTION":"15.02521482","PERIAPSIS":"558.410","INCLINATION":"43.0012","SITE":"AFETR","TIME_SYSTEM":"UTC","EPOCH":"2023-03-29T22:00:00.999936","GP_ID":"229141114","TLE_LINE2":"2 55501  43.0012  63.9562 0001033 229.3221 187.8582 15.02521482  1300","BSTAR":"0.00313450000000","MEAN_MOTION_DOT":"0.00042379","NORAD_CAT_ID":"55501","CLASSIFICATION_TYPE":"U","MEAN_ANOMALY":"187.8582","CENTER_NAME":"EARTH","DECAY_DATE":null,"COUNTRY_CODE":"US","ECCENTRICITY":"0.00010330","OBJECT_ID":"2023-015BE","RA_OF_ASC_NODE":"63.9562","MEAN_ELEMENT_THEORY":"SGP4","RCS_SIZE":"LARGE","FILE":"3874790","APOAPSIS":"559.843","LAUNCH_DATE":"2023-02-02","ELEMENT_SET_NO":"999","OBJECT_TYPE":"PAYLOAD","MEAN_MOTION_DDOT":"0.0000000000000","OBJECT_NAME":"STARLINK-5367","REV_AT_EPOCH":"130","REF_FRAME":"TEME","ARG_OF_PERICENTER":"229.3221","SEMIMAJOR_AXIS":"6937.261"},{"NORAD_CAT_ID":"55569","GP_ID":"229141623","TLE_LINE2":"2 55569  43.0005  90.4762 0001119 257.2776 353.1867 15.04467868  1306","BSTAR":"0.00342930000000","MEAN_MOTION_DOT":"0.00048905","TIME_SYSTEM":"UTC","EPOCH":"2023-03-29T22:00:00.999936","CLASSIFICATION_TYPE":"U","PERIOD":"95.715","TLE_LINE1":"1 55569U 23020A   23088.91667824  .00048905  00000-0  34293-2 0  9990","SITE":"AFETR","PERIAPSIS":"552.366","INCLINATION":"43.0005","EPHEMERIS_TYPE":"0","MEAN_MOTION":"15.04467868","MEAN_MOTION_DDOT":"0.0000000000000","ELEMENT_SET_NO":"999","OBJECT_TYPE":"PAYLOAD","LAUNCH_DATE":"2023-02-12","APOAPSIS":"553.917","SEMIMAJOR_AXIS":"6931.277","REF_FRAME":"TEME","ARG_OF_PERICENTER":"257.2776","OBJECT_NAME":"STARLINK-5749","REV_AT_EPOCH":"130","COUNTRY_CODE":"US","DECAY_DATE":null,"CENTER_NAME":"EARTH","MEAN_ANOMALY":"353.1867","RCS_SIZE":"LARGE","FILE":"3874790","RA_OF_ASC_NODE":"90.4762","MEAN_ELEMENT_THEORY":"SGP4","OBJECT_ID":"2023-020A","ECCENTRICITY":"0.00011190"},{"PERIOD":"95.715","TLE_LINE1":"1 55570U 23020B   23088.91667824  .00048594  00000-0  34080-2 0  9990","SITE":"AFETR","EPHEMERIS_TYPE":"0","MEAN_MOTION":"15.04464722","PERIAPSIS":"552.119","INCLINATION":"43.0005","MEAN_MOTION_DOT":"0.00048594","TLE_LINE2":"2 55570  43.0005  90.5009 0001490 256.8286 343.2151 15.04464722  1308","GP_ID":"229142368","BSTAR":"0.00340800000000","NORAD_CAT_ID":"55570","TIME_SYSTEM":"UTC","EPOCH":"2023-03-29T22:00:00.999936","CLASSIFICATION_TYPE":"U","DECAY_DATE":null,"COUNTRY_CODE":"US","MEAN_ANOMALY":"343.2151","CENTER_NAME":"EARTH","RA_OF_ASC_NODE":"90.5009","OBJECT_ID":"2023-020B","MEAN_ELEMENT_THEORY":"SGP4","RCS_SIZE":"LARGE","FILE":"3874790","ECCENTRICITY":"0.00014900","MEAN_MOTION_DDOT":"0.0000000000000","LAUNCH_DATE":"2023-02-12","APOAPSIS":"554.184","ELEMENT_SET_NO":"999","OBJECT_TYPE":"PAYLOAD","REF_FRAME":"TEME","ARG_OF_PERICENTER":"256.8286","SEMIMAJOR_AXIS":"6931.286","REV_AT_EPOCH":"130","OBJECT_NAME":"STARLINK-5737"},{"PERIOD":"95.716","TLE_LINE1":"1 55571U 23020C   23088.91667824  .00051445  00000-0  36062-2 0  9992","SITE":"AFETR","EPHEMERIS_TYPE":"0","MEAN_MOTION":"15.04458461","PERIAPSIS":"552.081","INCLINATION":"43.0001","TLE_LINE2":"2 55571  43.0001  90.4258 0001572 249.4248  21.9839 15.04458461  1303","GP_ID":"229140622","BSTAR":"0.00360620000000","MEAN_MOTION_DOT":"0.00051445","NORAD_CAT_ID":"55571","TIME_SYSTEM":"UTC","EPOCH":"2023-03-29T22:00:00.999936","CLASSIFICATION_TYPE":"U","DECAY_DATE":null,"COUNTRY_CODE":"US","MEAN_ANOMALY":"21.9839","CENTER_NAME":"EARTH","OBJECT_ID":"2023-020C","RA_OF_ASC_NODE":"90.4258","MEAN_ELEMENT_THEORY":"SGP4","RCS_SIZE":"LARGE","FILE":"3874790","ECCENTRICITY":"0.00015720","MEAN_MOTION_DDOT":"0.0000000000000","LAUNCH_DATE":"2023-02-12","APOAPSIS":"554.260","ELEMENT_SET_NO":"999","OBJECT_TYPE":"PAYLOAD","REF_FRAME":"TEME","ARG_OF_PERICENTER":"249.4248","SEMIMAJOR_AXIS":"6931.305","REV_AT_EPOCH":"130","OBJECT_NAME":"STARLINK-5739"},{"EPHEMERIS_TYPE":"0","MEAN_MOTION":"15.04473765","PERIAPSIS":"552.220","INCLINATION":"43.0002","SITE":"AFETR","TLE_LINE1":"1 55572U 23020D   23089.00001157  .00042311  00000-0  29712-2 0  9991","PERIOD":"95.715","CLASSIFICATION_TYPE":"U","TIME_SYSTEM":"UTC","EPOCH":"2023-03-30T00:00:00.999648","MEAN_MOTION_DOT":"0.00042311","TLE_LINE2":"2 55572  43.0002  89.9425 0001303 251.2746 124.5455 15.04473765  7102","GP_ID":"229113629","BSTAR":"0.00297120000000","NORAD_CAT_ID":"55572","ECCENTRICITY":"0.00013030","MEAN_ELEMENT_THEORY":"SGP4","RA_OF_ASC_NODE":"89.9425","OBJECT_ID":"2023-020D","RCS_SIZE":"LARGE","FILE":"3874685","MEAN_ANOMALY":"124.5455","CENTER_NAME":"EARTH","DECAY_DATE":null,"COUNTRY_CODE":"US","OBJECT_NAME":"STARLINK-5732","REV_AT_EPOCH":"710","ARG_OF_PERICENTER":"251.2746","REF_FRAME":"TEME","SEMIMAJOR_AXIS":"6931.258","LAUNCH_DATE":"2023-02-12","APOAPSIS":"554.027","ELEMENT_SET_NO":"999","OBJECT_TYPE":"PAYLOAD","MEAN_MOTION_DDOT":"0.0000000000000"},{"MEAN_MOTION":"15.04470412","EPHEMERIS_TYPE":"0","INCLINATION":"43.0002","PERIAPSIS":"552.295","SITE":"AFETR","TLE_LINE1":"1 55573U 23020E   23089.00001157  .00042528  00000-0  29865-2 0  9991","PERIOD":"95.715","CLASSIFICATION_TYPE":"U","EPOCH":"2023-03-30T00:00:00.999648","TIME_SYSTEM":"UTC","GP_ID":"229113848","TLE_LINE2":"2 55573  43.0002  89.9621 0001210 253.0756 114.4090 15.04470412  7108","BSTAR":"0.00298650000000","MEAN_MOTION_DOT":"0.00042528","NORAD_CAT_ID":"55573","ECCENTRICITY":"0.00012100","RA_OF_ASC_NODE":"89.9621","MEAN_ELEMENT_THEORY":"SGP4","OBJECT_ID":"2023-020E","FILE":"3874685","RCS_SIZE":"LARGE","MEAN_ANOMALY":"114.4090","CENTER_NAME":"EARTH","DECAY_DATE":null,"COUNTRY_CODE":"US","REV_AT_EPOCH":"710","OBJECT_NAME":"STARLINK-5738","ARG_OF_PERICENTER":"253.0756","REF_FRAME":"TEME","SEMIMAJOR_AXIS":"6931.269","LAUNCH_DATE":"2023-02-12","APOAPSIS":"553.972","OBJECT_TYPE":"PAYLOAD","ELEMENT_SET_NO":"999","MEAN_MOTION_DDOT":"0.0000000000000"},{"REF_FRAME":"TEME","ARG_OF_PERICENTER":"247.4430","SEMIMAJOR_AXIS":"6937.387","REV_AT_EPOCH":"710","OBJECT_NAME":"STARLINK-5747","MEAN_MOTION_DDOT":"0.0000000000000","LAUNCH_DATE":"2023-02-12","APOAPSIS":"560.235","ELEMENT_SET_NO":"999","OBJECT_TYPE":"PAYLOAD","OBJECT_ID":"2023-020F","RA_OF_ASC_NODE":"89.7764","MEAN_ELEMENT_THEORY":"SGP4","RCS_SIZE":"LARGE","FILE":"3874686","ECCENTRICITY":"0.00014170","DECAY_DATE":null,"COUNTRY_CODE":"US","MEAN_ANOMALY":"197.7621","CENTER_NAME":"EARTH","CLASSIFICATION_TYPE":"U","GP_ID":"229113863","TLE_LINE2":"2 55574  42.9999  89.7764 0001417 247.4430 197.7621 15.02480590  7103","BSTAR":"0.00273280000000","MEAN_MOTION_DOT":"0.00036852","NORAD_CAT_ID":"55574","TIME_SYSTEM":"UTC","EPOCH":"2023-03-30T00:00:00.999648","SITE":"AFETR","EPHEMERIS_TYPE":"0","MEAN_MOTION":"15.02480590","PERIAPSIS":"558.269","INCLINATION":"42.9999","PERIOD":"95.842","TLE_LINE1":"1 55574U 23020F   23089.00001157  .00036852  00000-0  27328-2 0  9997"},{"REV_AT_EPOCH":"710","OBJECT_NAME":"STARLINK-5745","SEMIMAJOR_AXIS":"6937.183","ARG_OF_PERICENTER":"216.6882","REF_FRAME":"TEME","ELEMENT_SET_NO":"999","OBJECT_TYPE":"PAYLOAD","APOAPSIS":"559.261","LAUNCH_DATE":"2023-02-12","MEAN_MOTION_DDOT":"0.0000000000000","ECCENTRICITY":"0.00003070","RCS_SIZE":"LARGE","FILE":"3874686","RA_OF_ASC_NODE":"89.8481","MEAN_ELEMENT_THEORY":"SGP4","OBJECT_ID":"2023-020G","CENTER_NAME":"EARTH","MEAN_ANOMALY":"198.2773","COUNTRY_CODE":"US","DECAY_DATE":null,"CLASSIFICATION_TYPE":"U","TIME_SYSTEM":"UTC","EPOCH":"2023-03-30T00:00:00.999648","NORAD_CAT_ID":"55575","GP_ID":"229113865","TLE_LINE2":"2 55575  43.0002  89.8481 0000307 216.6882 198.2773 15.02546936  7105","MEAN_MOTION_DOT":"0.00031758","BSTAR":"0.00235470000000","PERIAPSIS":"558.835","INCLINATION":"43.0002","EPHEMERIS_TYPE":"0","MEAN_MOTION":"15.02546936","SITE":"AFETR","TLE_LINE1":"1 55575U 23020G   23089.00001157  .00031758  00000-0  23547-2 0  9997","PERIOD":"95.837"},{"REV_AT_EPOCH":"720","OBJECT_NAME":"STARLINK-5751","ARG_OF_PERICENTER":"192.4435","REF_FRAME":"TEME","SEMIMAJOR_AXIS":"6733.189","APOAPSIS":"355.715","LAUNCH_DATE":"2023-02-12","OBJECT_TYPE":"PAYLOAD","ELEMENT_SET_NO":"999","MEAN_MOTION_DDOT":"0.0000000000000","ECCENTRICITY":"0.00009820","MEAN_ELEMENT_THEORY":"SGP4","RA_OF_ASC_NODE":"80.5043","OBJECT_ID":"2023-020H","FILE":"3874790","RCS_SIZE":"LARGE","MEAN_ANOMALY":"167.6409","CENTER_NAME":"EARTH","DECAY_DATE":null,"COUNTRY_CODE":"US","CLASSIFICATION_TYPE":"U","EPOCH":"2023-03-29T21:44:12.181056","TIME_SYSTEM":"UTC","TLE_LINE2":"2 55576  43.0025  80.5043 0000982 192.4435 167.6409 15.71345069  7204","BSTAR":"0.00005637000000","GP_ID":"229140872","MEAN_MOTION_DOT":"0.00006943","NORAD_CAT_ID":"55576","MEAN_MOTION":"15.71345069","EPHEMERIS_TYPE":"0","INCLINATION":"43.0025","PERIAPSIS":"354.393","SITE":"AFETR","TLE_LINE1":"1 55576U 23020H   23088.90569654  .00006943  00000-0  56370-4 0  9997","PERIOD":"91.641"}];
